     3.00           N: GNSS NAV DATA    E: Galileo          RINEX VERSION / TYPE
PREC2NAV                                20121215 063250 UTC PGM / RUN BY / DATE 
SOURCE: data/tum%W%D.sp3                                    COMMENT             
                                                            END OF HEADER       
E12 2012 10 25 14  0  0  .360146835880E-03  .851212717949E-10  .000000000000E+00
      .800000000000E+01 -.102249601164E+03  .358883912050E-08 -.106494025069E+00
     -.474940232105E-05  .494006837063E-04  .562685278802E-05  .544060500453E+04
      .396000000000E+06  .294713542281E-07  .156424344591E+01 -.903938325661E-08
      .955943634442E+00  .217403716107E+03  .278332791236E+01 -.591446726195E-08
     -.425863502608E-09  .000000000000E+00  .171100000000E+04  .000000000000E+00
      .240000000000E+01  .000000000000E+00  .000000000000E+00  .000000000000E+00
      .399600000000E+06  .000000000000E+00
E11 2012 10 25 16  0  0  .119223861560E-02  .826764102564E-10  .000000000000E+00
      .900000000000E+01 -.100379778391E+03  .365190781714E-08  .146343854189E+01
     -.461722668376E-05  .152120335178E-03  .558631921923E-05  .544060715992E+04
      .403200000000E+06  .259732409334E-07  .156422671491E+01 -.482725837633E-08
      .955928752872E+00  .218771916173E+03  .140245729949E+01 -.593947183226E-08
     -.395233207935E-09  .000000000000E+00  .171100000000E+04  .000000000000E+00
      .240000000000E+01  .000000000000E+00  .000000000000E+00  .000000000000E+00
      .406800000000E+06  .000000000000E+00
E12 2012 10 25 16  0  0  .360759636320E-03  .851019025641E-10  .000000000000E+00
      .900000000000E+01 -.101886285222E+03  .365375023957E-08  .800948100674E+00
     -.474711995496E-05  .474564281019E-04  .629063258895E-05  .544060071770E+04
      .403200000000E+06  .183053725664E-07  .156420079921E+01 -.682464866521E-08
      .955940456257E+00  .202709342737E+03 -.351466641233E+01 -.593260309061E-08
     -.426665208781E-09  .000000000000E+00  .171100000000E+04  .000000000000E+00
      .240000000000E+01  .000000000000E+00  .000000000000E+00  .000000000000E+00
      .406800000000E+06  .000000000000E+00
E11 2012 10 25 18  0  0  .119283387200E-02  .826783333333E-10  .000000000000E+00
      .100000000000E+02 -.100929221657E+03  .367583498959E-08  .236670385568E+01
     -.468978077131E-05  .152440374735E-03  .619273793271E-05  .544060378669E+04
      .410400000000E+06  .278879047941E-07  .156418394867E+01 -.654304128748E-08
      .955925904846E+00  .206645494309E+03 -.489136083153E+01 -.593987460822E-08
     -.394765061813E-09  .000000000000E+00  .171100000000E+04  .000000000000E+00
      .240000000000E+01  .000000000000E+00  .000000000000E+00  .000000000000E+00
      .414000000000E+06  .000000000000E+00
E12 2012 10 25 18  0  0  .361372450200E-03  .851277153846E-10  .000000000000E+00
      .100000000000E+02 -.887699794862E+02  .359607200492E-08  .165463190785E+01
     -.423325167817E-05  .479617145612E-04  .648084054005E-05  .544060468020E+04
      .410400000000E+06  .625513575342E-07  .156415779088E+01 -.109113389527E-07
      .955937362963E+00  .198173809840E+03 -.347571667904E+01 -.595617768865E-08
     -.396270177523E-09  .000000000000E+00  .171100000000E+04  .000000000000E+00
      .240000000000E+01  .000000000000E+00  .000000000000E+00  .000000000000E+00
      .414000000000E+06  .000000000000E+00
E11 2012 10 25 20  0  0  .119342926680E-02  .826957179487E-10  .000000000000E+00
      .110000000000E+02 -.875936010146E+02  .357579795996E-08 -.302903478933E+01
     -.425739244495E-05  .150564020032E-03  .635272938896E-05  .544060797423E+04
      .417600000000E+06  .606092218816E-07  .156414097391E+01  .111023065729E-07
      .955923082455E+00  .200615751081E+03  .139700939482E+01 -.595181231173E-08
     -.369086084568E-09  .000000000000E+00  .171100000000E+04  .000000000000E+00
      .240000000000E+01  .000000000000E+00  .000000000000E+00  .000000000000E+00
      .421200000000E+06  .000000000000E+00
E12 2012 10 25 20  0  0  .361985368120E-03  .851230717949E-10  .000000000000E+00
      .110000000000E+02 -.803823494522E+02  .360960622671E-08  .257541875252E+01
     -.381150869909E-05  .491075201463E-04  .596126577033E-05  .544060103171E+04
      .417600000000E+06  .397481477028E-08  .156411441433E+01  .710761866537E-07
      .955934869154E+00  .208193811595E+03 -.350387056793E+01 -.593570990946E-08
     -.315626992936E-09  .000000000000E+00  .171100000000E+04  .000000000000E+00
      .240000000000E+01  .000000000000E+00  .000000000000E+00  .000000000000E+00
      .421200000000E+06  .000000000000E+00
E11 2012 10 25 22  0  0  .119402448800E-02  .826525128205E-10  .000000000000E+00
      .120000000000E+02 -.769366665921E+02  .354487280239E-08 -.214388325225E+01
     -.361045221465E-05  .152276818604E-03  .574759836196E-05  .544060371637E+04
      .424800000000E+06 -.301201359994E-07  .156409768281E+01  .466782354780E-07
      .955920855989E+00  .210377015758E+03  .140448932267E+01 -.591165230220E-08
     -.291719565113E-09  .000000000000E+00  .171100000000E+04  .000000000000E+00
      .240000000000E+01  .000000000000E+00  .000000000000E+00  .000000000000E+00
      .428400000000E+06  .000000000000E+00
E12 2012 10 25 22  0  0  .362598172600E-03  .851008435897E-10  .000000000000E+00
      .120000000000E+02 -.821662084910E+02  .351412060201E-08 -.595053793328E+01
     -.376462253754E-05 -.481923676274E-04  .565862905756E-05  .544060283692E+04
      .424800000000E+06 -.215352842255E-07  .156407165045E+01  .239275933345E-08
      .955933053787E+00  .216537866189E+03 -.368465376240E+00 -.587696069310E-08
     -.280322887596E-09  .000000000000E+00  .171100000000E+04  .000000000000E+00
      .240000000000E+01  .000000000000E+00  .000000000000E+00  .000000000000E+00
      .428400000000E+06  .000000000000E+00
E11 2012 10 26  0  0  0  .119461906400E-02  .824471538462E-10  .000000000000E+00
      .130000000000E+02 -.793298924326E+02  .344783610688E-08 -.124162025712E+01
     -.360808630699E-05  .152373761246E-03  .539025374305E-05  .544060670053E+04
      .432000000000E+06 -.385731720474E-07  .156405514880E+01 -.460645813419E-08
      .955918960373E+00  .221132985820E+03  .139485776947E+01 -.588650309692E-08
     -.274451314321E-09  .000000000000E+00  .171100000000E+04  .000000000000E+00
      .240000000000E+01  .000000000000E+00  .000000000000E+00  .000000000000E+00
      .435600000000E+06  .000000000000E+00
E12 2012 10 26  0  0  0  .363210257240E-03  .848374538462E-10  .000000000000E+00
      .130000000000E+02 -.780072136046E+02  .336493160661E-08 -.190001831127E+01
     -.362555902032E-05  .469740873412E-04  .524983676271E-05  .544060576074E+04
      .432000000000E+06 -.296336928409E-06  .156403053384E+01  .174544896867E-06
      .955931675691E+00  .226595496981E+03  .275683062850E+01 -.571341790613E-08
     -.436882444425E-09  .000000000000E+00  .171100000000E+04  .000000000000E+00
      .240000000000E+01  .000000000000E+00  .000000000000E+00  .000000000000E+00
      .435600000000E+06  .000000000000E+00
